[{"OBJECT_NAME":"STARLINK-5884","OBJECT_ID":"2023-037AV","EPOCH":"2026-03-09T21:40:59.689632","MEAN_MOTION":14.98332178,"ECCENTRICITY":0.00026805,"INCLINATION":69.9978,"RA_OF_ASC_NODE":263.9786,"ARG_OF_PERICENTER":272.5548,"MEAN_ANOMALY":87.5304,"EPHEMERIS_TYPE":0,"CLASSIFICATION_TYPE":"U","NORAD_CAT_ID":55957,"ELEMENT_SET_NO":999,"REV_AT_EPOCH":16450,"BSTAR":0.00011589362,"MEAN_MOTION_DOT":1.29e-5,"MEAN_MOTION_DDOT":0},{"OBJECT_NAME":"RROCI-2","OBJECT_ID":"2024-043J","EPOCH":"2026-03-09T21:40:56.693280","MEAN_MOTION":14.99383357,"ECCENTRICITY":0.00054118,"INCLINATION":97.8279,"RA_OF_ASC_NODE":200.9973,"ARG_OF_PERICENTER":337.3784,"MEAN_ANOMALY":22.7199,"EPHEMERIS_TYPE":0,"CLASSIFICATION_TYPE":"U","NORAD_CAT_ID":59106,"ELEMENT_SET_NO":999,"REV_AT_EPOCH":10988,"BSTAR":0.00035067832,"MEAN_MOTION_DOT":4.232e-5,"MEAN_MOTION_DDOT":0}]
